id,UID,BuildingNumber,BuildingName,ClientID,Client,Address,PostCode,InvoiceAddress,InvoicePostCode,Reference,Phone,Fax,Region,SubRegion,ProjectNumber,JobTimeToCompleteWeighting,CEBuildingAbbreviation,TradingType,OwnershipType,EmailAddress,DefaultReactiveWorker,Division,AutoEmailWhenJobCompletedAdditionallyTo,EmailSentWhen,OnNewJobEmailsCopyTo,Status,BudgetStartMonth,AutoWarnIfApproachingPropertyMaintenanceBudget,PercentageToWarnAbove,BuildingOnHold,BuildingOnHoldReason,Landlord,InsuranceBroker,RegionalOperationsManager,RegionalOperationsDirector,GroupOperationsDirector,EstatesManager,SageAccountCode,AllowIntranetCarParkSpaceBooking,UseInGlobalSurvey,BSMVixenInitials,JobType,VixenSiteCode,VixenReactive,VixenPPM,BuildingPassword,CostCode,CostCodeDescription,Longitude,Latitude,Website,FireZone,FirePoint,WidthInMetres,LengthInMetres,HeightInMetres,Area,Volume,ConfinedSpaceWarningText,AsbestosDetails,CurrentHeadcount,LocalAuthority,BuildingPicture
32,1117,,"Entrepot La Roche Sur Yon",10,"CITY FM EUROPE",.,,.,,,,,"CENTRE EST",NULL,,1,None,Trading,NULL,,0,NULL,,"On Completion of Help Desk Work only",,NULL,January,0,90,0,,NULL,NULL,NULL,NULL,NULL,NULL,,1,0,,,,,,,NULL,NULL,NULL,NULL,NULL,NULL,NULL,NULL,NULL,NULL,NULL,NULL,NULL,NULL,NULL,,
33,1007,1,"CITYFM LAKANAL",10,"CITY FM EUROPE","77 Boulevard Vauban 59800 Lille",59800,"2 All�e Lakanal 59650 Villeneuve d'ascq",59650,"832 696 892",33320047481,,"NORD EST",NULL,,0,,Zoom,NULL,maintenancecity@cityfm.com,168,NULL,maintenancecity@cityfm.com,"On Completion of both Help Desk and Planned Maintenance Work",,NULL,,0,0,0,,NULL,NULL,NULL,NULL,NULL,NULL,,0,0,,,,,,CITYFM59,"CITY FM LAKANAL","CITY FM LAKANAL",NULL,NULL,NULL,NULL,NULL,NULL,NULL,NULL,NULL,NULL,NULL,NULL,NULL,,
34,7,163,"Entrepot Metro Montelimar",8,METRO,"Boulevard Charles Andre 26200 MONTELIMAR",26200,"2 All�e Lakanal 59650 Villeneuve d'ascq",92000,3.99E+13,33475916214,,"SUD EST",NULL,31521163,0,2017,Trading,NULL,nicolas.dufau@metro.fr,0,NULL,nicolas.dufau@metro.fr,"On Completion of both Help Desk and Planned Maintenance Work",,ACTIF,October,0,0,0,,NULL,NULL,"Vincent RANOU","Nicolas DUFAU","Daniel FIGUEIREDO","Nicolas DUFAU",,0,0,,,,,,"METRO 163",163-0395,Magasin,NULL,NULL,NULL,,,0,0,0,0,0,,,0,,
35,6,161,"Entrepot Metro Melun",8,METRO,"Rue de la Plaine de la Croix Besnard 77000 VAUX LE PENIL",77000,"METRO France Z.A. du Petit Nanterre 5 rue des Grands Pres 92000 NANTERRE",92000,3.99E+13,33164144814,,"PARIS ILE DE FRANCE",NULL,31521161,0,2018,Trading,NULL,florence.rolland@metro.fr,0,NULL,florence.rolland@metro.fr,"On Completion of both Help Desk and Planned Maintenance Work",,ACTIF,October,0,0,0,,NULL,NULL,"Florence ROLLAND","Francoise CARLA","Daniel FIGUEIREDO","David GREGORY",,0,0,,,,2.695203,48.532673,"METRO 161",161-0395,Magasin,2.695203,48.532673,https://www.metro.fr/metro/vaux-le-penil.html?cid=fr:a:shop:GMBU:ALL:ALL:20170901:Melun,,,0,0,0,0,0,,,0,,
36,1013,51,"Entrepot Metro Evry Lisses",8,METRO,"La Piece de la Remise R.N. 46 91090 EVRY",91090,"METRO France Z.A. du Petit Nanterre 5 rue des Grands pres 92000 NANTERRE",92000,3.99E+13,33169894200,,"PARIS ILE DE FRANCE",NULL,31521051,"60,25",1993,Trading,NULL,christophe.legris@metro.fr,0,NULL,david.gregory@metro.fr,"On Completion of both Help Desk and Planned Maintenance Work",,ACTIF,October,0,0,0,,NULL,NULL,"Benoit HAUTCOEUR","Francoise CARLA","Daniel FIGUEIREDO","David GREGORY",,0,0,,,,,,"METRO 051",051-0395,"Entrepot Metro Evry",NULL,NULL,NULL,8430,10058,5042,581,110,101383,900,850,"168,34",1424,,
37,1034,48,"Entrepot Metro Creil",8,METRO,"Z.A.C. du Bois des Fenetres Rue de la Revolution Francaise 60740 SAINT MAXIMIN",60740,"METRO France Z.A. du Petit Nanterre 5 rue des Grands Pres 92000 NANTERRE",92000,3.99E+13,33344646000,,"PARIS ILE DE FRANCE",NULL,31521048,116,1999,Trading,NULL,francoise.carla@metro.fr,0,NULL,francoise.carla@metro.fr,"On Completion of both Help Desk and Planned Maintenance Work",,ACTIF,October,0,0,0,,NULL,NULL,"Noel DIAS","Francoise CARLA","Daniel FIGUEIREDO","Francoise CARLA",,0,0,,,,,,"METRO 048",048-0395,"Entrepot Metro Creil",NULL,NULL,NULL,3550,2243,3377,268,32,423,0,,117,1301,,
38,1065,106,"Entrepot Metro Meaux",8,METRO,"Z.I. Nord Rue du Vide Arpents 77100 MEAUX",77100,"METRO France Z.A. du Petit Nanterre 5 rue des Grands Pres 92000 NANTERRE",92000,3.99E+13,33160326000,,"PARIS ILE DE FRANCE",NULL,31521106,112,2003,Trading,NULL,francoise.carla@metro.fr,0,NULL,francoise.carla@metro.fr,"On Completion of both Help Desk and Planned Maintenance Work",,ACTIF,October,0,0,0,,NULL,NULL,NULL,"Francoise CARLA","Daniel FIGUEIREDO","Francoise CARLA",,0,0,,,,,,"METRO 106",106-0395,"Entrepot Metro Meaux",NULL,NULL,NULL,,,0,0,0,0,0,,,0,,
39,1010,108,"Entrepot Metro Belfort",8,METRO,"Rue Albert Camus 90000 BELFORT",90000,"METRO France Z.A. du Petit Nanterre 5 rue des Grands pres 92000 NANTERRE",92000,3.99E+13,33384903613,,"CENTRE EST",NULL,31521108,"91,56",2003,Trading,NULL,frederic.delcroix@metro.fr,0,NULL,frederic.delcroix@metro.fr,"On Completion of both Help Desk and Planned Maintenance Work",,ACTIF,October,0,0,0,,NULL,NULL,"Hicham MERZAQ","Mickael POULET","Daniel FIGUEIREDO","Frederic DELCROIX",,0,0,,,,,,"METRO 108",108-0395,"Entrepot Metro Belfort",NULL,NULL,NULL,3548,4723,2674,220,18,589,0,,115,2381,,
40,1035,28,"Entrepot Metro Besancon",8,METRO,"6 rue Alfred Kastler 25000 BESANCON",25000,"METRO France Z.A. du Petit Nanterre 5 rue des Grands Pres 92000 NANTERRE",92000,3.99E+13,33381416913,,"CENTRE EST",NULL,31521028,"91,56",1998,Trading,NULL,frederic.delcroix@metro.fr,0,NULL,frederic.delcroix@metro.fr,"On Completion of both Help Desk and Planned Maintenance Work",,ACTIF,October,0,0,0,,NULL,NULL,"Matthieu DEGRAVE","Mickael POULET","Daniel FIGUEIREDO","Frederic DELCROIX",,0,0,,,,,,"METRO 028",028-0395,"Entrepot Metro Besancon",NULL,NULL,NULL,3713,5277,2802,256,5,541,0,0,115,2963,,
41,1059,47,"Entrepot Metro Valenciennes",8,METRO,"Rue Ernest Macarez 59300 VALENCIENNES",59300,"METRO France Z.A. du Petit Nanterre 5 rue des Grands Pres 92000 NANTERRE",92000,3.99E+13,33327519013,,"NORD EST",NULL,31521047,83,1999,Trading,NULL,franck.mauviel@metro.fr,0,NULL,franck.mauviel@metro.fr,"On Completion of both Help Desk and Planned Maintenance Work",,ACTIF,October,0,0,0,,NULL,NULL,NULL,"Mickael POULET","Daniel FIGUEIREDO","Franck MAUVIEL",,0,0,,,,,,"METRO 047",047-0395,"Entrepot Metro Valenciennes",NULL,NULL,NULL,3627,2253,2764,196,10,"588,28",0,0,115.61,1383,,
42,1014,25,"Entrepot Metro Quimper",8,METRO,"Rond-point de Kerourvois Route de Coray 29500 ERGUE GABERIC",29500,"METRO France Z.A. du Petit Nanterre 5 rue des Grands pres 92000 NANTERRE",92000,3.99E+13,33298666700,,OUEST,NULL,31521025,0,1996,Trading,NULL,nicolas.havez@metro.fr,0,NULL,nicolas.havez@metro.fr,"On Completion of both Help Desk and Planned Maintenance Work",,ACTIF,October,0,0,0,,NULL,NULL,"Yannick ANDRE","Philippe LELONGT","Daniel FIGUEIREDO","Nicolas HAVEZ",,0,0,,,,,,"METRO 025",025-0395,"Entrepot Metro Quimper",NULL,NULL,NULL,3505,4641,2756,171,35,51246,0,,"116,77",3082,,
43,1048,62,"Entrepot Metro Brest",8,METRO,"Z.I. de Kergaradec Rue Henri Becquerel 29850 GOUESNOU",29850,"METRO France Z.A. du Petit Nanterre 5 rue des Grands Pres 92000 NANTERRE",92000,3.99E+13,33298413900,,OUEST,NULL,31521062,0,1995,Trading,NULL,nicolas.havez@metro.fr,0,NULL,nicolas.havez@metro.fr,"On Completion of both Help Desk and Planned Maintenance Work",,ACTIF,October,0,0,0,,NULL,NULL,"Patrick BECQUART","Philippe LELONGT","Daniel FIGUEIREDO","Nicolas HAVEZ",,0,0,,,,,,"METRO 062",062-0395,"Entrepot Metro Brest",NULL,NULL,NULL,3154,2939,2841,162,17,194,0,0,106.14,1525,,
44,1015,17,"Entrepot Metro Bobigny",8,METRO,"Z.I. Les Vignes 35-77 rue Benoit Frachon 93013 BOBIGNY Cedex 13",93013,"METRO France Z.A. du Petit Nanterre 5 rue des Grands pres 92000 NANTERRE",92000,3.99E+13,33148105210,,"PARIS ILE DE FRANCE",NULL,31521017,0,1981,Trading,NULL,alain.lacouture@metro.fr,0,NULL,alain.lacouture@metro.fr,"On Completion of both Help Desk and Planned Maintenance Work",,ACTIF,October,0,0,0,,NULL,NULL,"Eric PORTELLI","Francoise CARLA","Daniel FIGUEIREDO","Alain LACOUTURE",,0,0,,,,,,"METRO 017",017-0395,"Entrepot Metro Bobigny",NULL,NULL,NULL,19064,16903,12037,333,"149,5","2329,78","445,88",233.71,158.72,3307,,
45,1018,23,"Entrepot Metro Pau",8,METRO,"Z.A.C. du Parvis avenue du Perlic 64140 LONS",64140,"METRO France Z.A. du Petit Nanterre 5 rue des Grands pres 92000 NANTERRE",92000,3.99E+13,33559400630,,"SUD OUEST",NULL,31521023,0,1996,Trading,NULL,pierre.turon@metro.fr,0,NULL,pierre.turon@metro.fr,"On Completion of both Help Desk and Planned Maintenance Work",,ACTIF,October,0,0,0,,NULL,NULL,"Jerome DUVILLE","Christophe PELLIZZON","Daniel FIGUEIREDO","Pierre TURON",,0,0,,,,,,"METRO 023",023-0395,"Entrepot Metro Pau",NULL,NULL,NULL,3495,5586,2693,212,16,47716,0,0,"116,77",3615,,
46,1063,86,"Entrepot Metro Tarbes",8,METRO,"Z.A. de Bastillac Sud 65000 TARBES",65000,"METRO France Z.A. du Petit Nanterre 5 rue des Grands Pres 92000 NANTERRE",92000,3.99E+13,33562446418,,"SUD OUEST",NULL,31521086,0,1994,Trading,NULL,pierre.turon@metro.fr,0,NULL,pierre.turon@metro.fr,"On Completion of both Help Desk and Planned Maintenance Work",,ACTIF,October,0,0,0,,NULL,NULL,"Raphael VAUDELET","Christophe PELLIZZON","Daniel FIGUEIREDO","Pierre TURON",,0,0,,,,,,"METRO 086",086-0395,"Entrepot Metro Tarbes",NULL,NULL,NULL,3519,2206,2710,186,16,501,0,0,114.94,1184,,
47,1020,131,"Entrepot Metro Brive La Gaillarde",8,METRO,"Parc d'entreprises de Brive Ouest rue Louis Taurisson 19100 BRIVE LA GAILLARDE",19100,"METRO France Z.A. du Petit Nanterre 5 rue des Grands Pres 92000 NANTERRE",92000,3.99E+13,33555862113,,"SUD OUEST",NULL,31521131,0,2004,Trading,NULL,pierre.turon@metro.fr,0,NULL,pierre.turon@metro.fr,"On Completion of both Help Desk and Planned Maintenance Work",,ACTIF,October,0,0,0,,NULL,NULL,"Dimitri LEGOFF","Christophe PELLIZZON","Daniel FIGUEIREDO","Christopher BARON",,0,0,,,,,,"METRO 131",131-0395,"Entrepot Metro Brive La Gaillarde",NULL,NULL,NULL,3739,4730,3125,243,30,53012,0,0,"119,03",3074,,
48,1019,24,"Entrepot Metro Perigueux",8,METRO,"111 route de Lyon Quartier de Gardanne 24000 PERIGUEUX",24000,"METRO France Z.A. du Petit Nanterre 5 rue des Grands Pres 92000 NANTERRE",92000,3.99E+13,33553064213,,"SUD OUEST",NULL,31521024,0,1996,Trading,NULL,christopher.baron@metro.fr,0,NULL,christopher.baron@metro.fr,"On Completion of both Help Desk and Planned Maintenance Work",,ACTIF,October,0,0,0,,NULL,NULL,"Louise ASCHARD","Christophe PELLIZZON","Daniel FIGUEIREDO","Christopher BARON",,0,0,,,,,,"METRO 024",024-0395,"Entrepot Metro Perigueux",NULL,NULL,NULL,3671,4625,2806,220,40,"513,57",0,0,119.81,3620,,
49,1031,105,"Entrepot Metro Buchelay",8,METRO,"Rue des Closeaux Lieu dit La Grande Pi�ce 78200 BUCHELAY",78200,"METRO France Z.A. du Petit Nanterre 5 rue des Grands Pres 92000 NANTERRE",92000,3.99E+13,33130633614,,"PARIS ILE DE FRANCE",NULL,31521105,90,2002,Trading,NULL,corentin.gaspard@metro.fr,0,NULL,corentin.gaspard@metro.fr,"On Completion of both Help Desk and Planned Maintenance Work",,ACTIF,October,0,0,0,,NULL,NULL,"Dominique LUNEAU","Francoise CARLA","Daniel FIGUEIREDO","Corentin GASPARD",,0,0,,,,,,"METRO 105",105-0395,"Entrepot Metro Buchelay",NULL,NULL,NULL,3717,5739,2718,205,"17,5","618,27",80,28,110.05,2965,,
50,1016,20,"Entrepot Metro Trappes",8,METRO,"R.N. 10 Zone Immoparc 78190 TRAPPES",78190,"METRO France Z.A. du Petit Nanterre 5 rue des Grands pres 92000 NANTERRE",92000,3.99E+13,33130664314,,"PARIS ILE DE FRANCE",NULL,31521020,100,1997,Trading,NULL,corentin.gaspard@metro.fr,0,NULL,corentin.gaspard@metro.fr,"On Completion of both Help Desk and Planned Maintenance Work",,ACTIF,October,0,0,0,,NULL,NULL,"Nicolas JAGOLICZ","Francoise CARLA","Daniel FIGUEIREDO","Corentin GASPARD",,0,0,,,,,,"METRO 020",020-0395,"Entrepot Metro Trappes",NULL,NULL,NULL,5699,4840,3297,254,29,"554,56",0,0,"115,72",1621,,
51,1017,220,"Entrepot Metro Trappes Bureaux",8,METRO,"R.N. 10 Zone Immoparc 78190 TRAPPES",78190,"METRO France Z.A. du Petit Nanterre 5 rue des Grands pres 92000 NANTERRE",92000,3.99E+13,33130664214,,"PARIS ILE DE FRANCE",NULL,31521220,0,1997,Trading,NULL,corentin.gaspard@metro.fr,0,NULL,corentin.gaspard@metro.fr,"On Completion of both Help Desk and Planned Maintenance Work",,ACTIF,October,0,0,0,,NULL,NULL,"Nicolas JAGOLICZ","Francoise CARLA","Daniel FIGUEIREDO","Corentin GASPARD",,0,0,,,,,,"METRO 220",220-0395,"Entrepot Metro Trappes Bureaux",NULL,NULL,NULL,1665,2587,1140,41,20,0,206,0,0,0,,
52,1062,87,"Entrepot Metro Calais",8,METRO,"Z.A.C. Marcel Doret Rue Louis Breguet 62100  CALAIS",62100,"METRO France Z.A. du Petit Nanterre 5 rue des Grands Pres 92000 NANTERRE",92000,3.99E+13,33321466113,,"NORD EST",NULL,31521087,0,1994,Trading,NULL,william.beaugrand@metro.fr,0,NULL,william.beaugrand@metro.fr,"On Completion of both Help Desk and Planned Maintenance Work",,ACTIF,October,0,0,0,,NULL,NULL,"Bertrand LAGADEC","Francoise CARLA","Daniel FIGUEIREDO","William BEAUGRAND",,0,0,,,,,,"METRO 087",087-0395,"Entrepot Metro Calais",NULL,NULL,NULL,3694,3275,2698,229,23,467,0,275,114,1110,,
53,1025,133,"Entrepot Metro Boulogne",8,METRO,"Zone de l'Inquetrie 62280 SAINT MARTIN BOULOGNE",62280,"METRO France Z.A. du Petit Nanterre 5 rue des Grands Pres 92000 NANTERRE",92000,3.99E+13,33321996313,33321996329,"NORD EST",NULL,31521133,140,2006,Trading,NULL,william.beaugrand@metro.fr,0,NULL,william.beaugrand@metro.fr,"On Completion of both Help Desk and Planned Maintenance Work",,ACTIF,October,0,0,0,,NULL,NULL,"Olivier MASSONNEAU","Francoise CARLA","Daniel FIGUEIREDO","William BEAUGRAND",,0,0,,,,,,"METRO 133",133-0395,"Entrepot Metro Boulogne",NULL,NULL,NULL,3665,4485,2876,153,18,478,0,195,114,2308,,
54,1039,79,"Entrepot Metro Caen",8,METRO,"Avenue du General De Gaulle Ancienne route de Lion sur Mer 14200 HEROUVILLE SAINT CLAIR",14200,"METRO France Z.A. du Petit Nanterre 5 rue des Grands Pres 92000 NANTERRE",92000,3.99E+13,33231066114,,OUEST,NULL,31521079,0,1994,Trading,NULL,cedric.saintclair@metro.fr,0,NULL,cedric.saintclair@metro.fr,"On Completion of both Help Desk and Planned Maintenance Work",,ACTIF,October,0,0,0,,NULL,NULL,"Christophe SWIERGIEL","Philippe LELONGT","Daniel FIGUEIREDO","Cedric SAINT CLAIR",,0,0,,,,,,"METRO 079",079-0395,"Entrepot Metro Caen",NULL,NULL,NULL,4499,,3157,218,0,651,0,,125,0,,
55,1023,142,"Entrepot Metro Cherbourg",8,METRO,"Les Rouges Terres R.N.13 50470 LA GLACERIE",50470,"METRO France Z.A. du Petit Nanterre 5 rue des Grands Pres 92000 NANTERRE",92000,3.99E+13,33233427913,,OUEST,NULL,31521142,0,2007,Trading,NULL,cedric.saintclair@metro.fr,0,NULL,cedric.saintclair@metro.fr,"On Completion of both Help Desk and Planned Maintenance Work",,ACTIF,October,0,0,0,,NULL,NULL,"Georges FARRUGIA","Philippe LELONGT","Daniel FIGUEIREDO","Cedric SAINT CLAIR",,0,0,,,,,,"METRO 142",142-0395,"Entrepot Metro Cherbourg",NULL,NULL,NULL,3540,4209,2679,156,16,69,0,28,130,2126,,
56,1040,279,"Entrepot Metro Caen Bureaux",8,METRO,"Avenue du General De Gaulle Ancienne route de Lion sur Mer 14200 HEROUVILLE SAINT CLAIR",14200,"METRO France Z.A. du Petit Nanterre 5 rue des Grands Pres 92000 NANTERRE",92000,3.99E+13,33231066114,,OUEST,NULL,31521279,0,2007,Trading,NULL,cedric.saintclair@metro.fr,0,NULL,cedric.saintclair@metro.fr,"On Completion of both Help Desk and Planned Maintenance Work",,ACTIF,October,0,0,0,,NULL,NULL,"Priscillia DHENRY","Philippe LELONGT","Daniel FIGUEIREDO","Cedric SAINT CLAIR",,0,0,,,,,,"METRO 279",279-0395,"Entrepot Metro Caen Bureau",NULL,NULL,NULL,3035,,2354,72,0,0,229,,,0,,
57,1043,42,"Entrepot Metro Saint Nazaire",8,METRO,"Z.A.C. de Brais Rue Thomas Edison 44600 SAINT NAZAIRE",44600,"METRO France Z.A. du Petit Nanterre 5 rue des Grands Pres 92000 NANTERRE",92000,3.99E+13,33240002613,,OUEST,NULL,31521042,0,2001,Trading,NULL,frederic.poisson@metro.fr,0,NULL,frederic.poisson@metro.fr,"On Completion of both Help Desk and Planned Maintenance Work",,ACTIF,October,0,0,0,,NULL,NULL,"Benjamin LARIDAN","Philippe LELONGT","Daniel FIGUEIREDO","Frederic POISSON",,0,0,,,,,,"METRO 042",042-0395,"Entrepot Metro St Nazaire",NULL,NULL,NULL,3550,5518,2674,220,"18,4","148,8",0,0,112.5,2717,,
58,1022,137,"Entrepot Metro La Roche Sur Yon",8,METRO,"Z.A.C. de la Landette 85190 VENANSAULT",85190,"METRO France Z.A. du Petit Nanterre 5 rue des Grands Pres 92000 NANTERRE",92000,3.99E+13,33251456013,,OUEST,NULL,31521137,0,2007,Trading,NULL,frederic.poisson@metro.fr,0,NULL,frederic.poisson@metro.fr,"On Completion of both Help Desk and Planned Maintenance Work",,ACTIF,October,0,0,0,,NULL,NULL,"Cyril HAMON","Philippe LELONGT","Daniel FIGUEIREDO","Frederic POISSON",,0,0,,,,,,"METRO 137",137-0395,"Entrepot Metro La Roche Sur Yon",NULL,NULL,NULL,3338,2895,2524,204,20,"487,51",0,0,97.04,1466,,
59,1026,134,"Entrepot Metro Paris 12 Bercy",8,METRO,"24 avenue des Terroirs de France  75012 PARIS",75012,"METRO France Z.A. du Petit Nanterre 5 rue des Grands Pres 92000 NANTERRE",92000,3.99E+13,33153463414,,"PARIS ILE DE FRANCE",NULL,31521134,0,2011,Trading,NULL,elhabib.benadjemia@metro.fr,0,NULL,elhabib.benadjemia@metro.fr,"On Completion of both Help Desk and Planned Maintenance Work",,ACTIF,October,0,0,0,,NULL,NULL,NULL,"Francoise CARLA","Daniel FIGUEIREDO","El Habib BENADJEMIA",,0,0,,,,,,"METRO 134",134-0395,"Entrepot Metro Paris 12 Bercy",NULL,NULL,NULL,14500,5800,3720,729,0,0,0,0,0,1000,,
60,1021,144,"Entrepot Metro Portet Sur Garonne",8,METRO,"Boulevard de Courties 31120 PORTET SUR GARONNE",31120,"METRO France Z.A. du Petit Nanterre 5 rue des Grands Pres 92000 NANTERRE",92000,3.99E+13,33534619702,,"SUD OUEST",NULL,31521144,70,2012,Trading,NULL,denis.vives@metro.fr,0,NULL,denis.vives@metro.fr,"On Completion of both Help Desk and Planned Maintenance Work",,ACTIF,October,0,0,0,,NULL,NULL,"Benoit CLAVE","Christophe PELLIZZON","Daniel FIGUEIREDO","Denis VIVES",,0,0,,,,,,"METRO 144",144-0395,"Entrepot Metro Portet Sur Garonne",NULL,NULL,NULL,6475,4263,4598,486,28,280,0,0,300,1235,,
61,1027,10,"Entrepot Metro Villeneuve",8,METRO,"102-104 Avenue de Verdun BP78 92393 VILLENEUVE LA GARENNE Cedex",92393,"METRO France Z.A. du Petit Nanterre 5 rue des Grands Pres 92000 NANTERRE",92000,3.99E+13,33143893633,,"PARIS ILE DE FRANCE",NULL,31521010,0,1971,Trading,NULL,thierry.vincent01@metro.fr,0,NULL,thierry.vincent01@metro.fr,"On Completion of both Help Desk and Planned Maintenance Work",,ACTIF,October,0,0,0,,NULL,NULL,"Claude MOTTE","Francoise CARLA","Daniel FIGUEIREDO","Thierry VINCENT",,0,0,,,,,,"METRO 010",010-0395,"Entrepot Metro Villeneuve",NULL,NULL,NULL,19191,21179,10000,1665,130,2964,0,,172,2189,,
62,1028,107,"Entrepot Metro Saint Malo",8,METRO,"Z.A.C. des Mottais 35400 SAINT MALO",35400,"METRO France Z.A. du Petit Nanterre 5 rue des Grands Pres 92000 NANTERRE",92000,3.99E+13,33299194013,,OUEST,NULL,31521107,0,2004,Trading,NULL,cyrille.jouan@metro.fr,0,NULL,cyrille.jouan@metro.fr,"On Completion of both Help Desk and Planned Maintenance Work",,ACTIF,October,0,0,0,,NULL,NULL,"Herve FREY","Philippe LELONGT","Daniel FIGUEIREDO","Cyrille JOUAN",,0,0,,,,,,"METRO 107",107-0395,"Entrepot Metro Saint Malo",NULL,NULL,NULL,3680,8511,2737,260,40,"555,56",0,0,116.98,3343,,
63,1036,26,"Entrepot Metro Saint Brieuc",8,METRO,"16 rue Ampere 22000 SAINT BRIEUC",22000,"METRO France Z.A. du Petit Nanterre 5 rue des Grands Pres 92000 NANTERRE",92000,3.99E+13,33296686513,,OUEST,NULL,31521026,0,1998,Trading,NULL,cyrille.jouan@metro.fr,0,NULL,cyrille.jouan@metro.fr,"On Completion of both Help Desk and Planned Maintenance Work",,ACTIF,October,0,0,0,,NULL,NULL,"Richard RIVIERE","Philippe LELONGT","Daniel FIGUEIREDO","Cyrille JOUAN",,0,0,,,,,,"METRO 026",026-0395,"Entrepot Metro Saint Brieuc",NULL,NULL,NULL,3505,6135,2523,224,22,170,0,25,153,3753,,
64,1024,130,"Entrepot Metro Le Havre",8,METRO,"2 rue Desmarais Boulevard de l'Amiral Mouchez 76600 LE HAVRE",76600,"METRO France Z.A. du Petit Nanterre 5 rue des Grands Pres 92000 NANTERRE",92000,3.99E+13,33235256814,,OUEST,NULL,31521130,0,1994,Trading,NULL,jerome.bannier@metro.fr,0,NULL,jerome.bannier@metro.fr,"On Completion of both Help Desk and Planned Maintenance Work",,ACTIF,October,0,0,0,,NULL,NULL,"Bertrand GRASSIN","Philippe LELONGT","Daniel FIGUEIREDO","Jerome BANNIER",,0,0,,,,,,"METRO 130",130-0395,"Entrepot Metro Le Havre",NULL,NULL,NULL,4000,2852,2919,306,30,50783,0,169,"108,3",2852,,
65,1038,36,"Entrepot Metro Rouen Sotteville",8,METRO,"55 Chemin du Halage B.P. 233 76304 SOTTEVILLE LES ROUEN",76304,"METRO France Z.A. du Petit Nanterre 5 rue des Grands Pres 92000 NANTERRE",92000,3.99E+13,33232959210,,OUEST,NULL,31521036,0,1991,Trading,NULL,jerome.bannier@metro.fr,0,NULL,jerome.bannier@metro.fr,"On Completion of both Help Desk and Planned Maintenance Work",,ACTIF,October,0,0,0,,NULL,NULL,"Jean Luc GREGOIRE","Philippe LELONGT","Daniel FIGUEIREDO","Jerome BANNIER",,0,0,,,,,,"METRO 036",036-0395,"Entrepot Metro Rouen Sotteville",NULL,NULL,NULL,13131,9637,9876,1003,114,2079,720,268,173,3555,,
66,1029,31,"Entrepot Metro Nantes",8,METRO,"Z.A.C de Gros 361 Route de Sainte Luce 44300  NANTES",44300,"METRO France Z.A. du Petit Nanterre 5 rue des Grands Pres 92000 NANTERRE",92000,3.99E+13,33240681714,,OUEST,NULL,31521031,164,1988,Trading,NULL,anthony.garnier@metro.fr,0,NULL,anthony.garnier@metro.fr,"On Completion of both Help Desk and Planned Maintenance Work",,ACTIF,October,0,0,0,,NULL,NULL,"Valerie THIBAUT","Philippe LELONGT","Daniel FIGUEIREDO","Anthony GARNIER",,0,0,,,,,,"METRO 031",031-0395,"Entrepot Metro Nantes",NULL,NULL,NULL,13852,10772,5483,502,72,1273,590,129,135,4498,,
67,1032,83,"Entrepot Metro Amiens",8,METRO,"Espace Industriel de Longpre Avenue Roger Dumoulin 80000 AMIENS",80000,"METRO France Z.A. du Petit Nanterre 5 rue des Grands Pres 92000 NANTERRE",92000,3.99E+13,33322547413,33322547429,"NORD EST",NULL,31521083,0,1994,Trading,NULL,matthieu.hugentobler@metro.fr,0,NULL,matthieu.hugentobler@metro.fr,"On Completion of both Help Desk and Planned Maintenance Work",,ACTIF,October,0,0,0,,NULL,NULL,"Reynald WALCART","Francoise CARLA","Daniel FIGUEIREDO","Matthieu HUGENTOBLER",,0,0,,,,,,"METRO 083",083-0395,"Entrepot Metro Amiens",NULL,NULL,NULL,4586,3695,3396,331,28,643,43,,141,1756,,
68,1033,104,"Entrepot Metro Angouleme",8,METRO,"Rue des Marais de Grelet La Combe � Rosier 16000 ANGOULEME",16000,"METRO France Z.A. du Petit Nanterre 5 rue des Grands Pres 92000 NANTERRE",92000,3.99E+13,33545256000,,"SUD OUEST",NULL,31521104,0,2002,Trading,NULL,christian.mainsat@metro.fr,0,NULL,christian.mainsat@metro.fr,"On Completion of both Help Desk and Planned Maintenance Work",,ACTIF,October,0,0,0,,NULL,NULL,"Antoine REZZOAGLI","Philippe LELONGT","Daniel FIGUEIREDO","Christian MAINSAT",,0,0,,,,,,"METRO 104",104-0395,"Entrepot Metro Angouleme",NULL,NULL,NULL,3685,2933,2686,265,40,"617,28",0,0,110.16,1600,,
69,1052,76,"Entrepot Metro Limoges",8,METRO,"Avenue de l'Abattoir 87000 LIMOGES",87000,"METRO France Z.A. du Petit Nanterre 5 rue des Grands Pres 92000 NANTERRE",92000,3.99E+13,33555314800,,"SUD OUEST",NULL,31521076,0,1994,Trading,NULL,christian.mainsat@metro.fr,0,NULL,christian.mainsat@metro.fr,"On Completion of both Help Desk and Planned Maintenance Work",,ACTIF,October,0,0,0,,NULL,NULL,"Christophe LAPEYRE","Philippe LELONGT","Daniel FIGUEIREDO","Christian MAINSAT",,0,0,,,,,,"METRO 076",076-0395,"Entrepot Metro Limoges",NULL,NULL,NULL,,,0,0,0,0,0,,,0,,
70,1091,238,"Entrepot Metro Toulon Bureaux",8,METRO,"171 Avenue de l'Europe 83140 SIX FOURS LES PLAGES",83140,"METRO France Z.A. du Petit Nanterre 5 rue des Grands Pres 92000 NANTERRE",92000,3.99E+13,33494304200,,"SUD EST",NULL,31521238,0,1991,Trading,NULL,pedro.piressilveira@metro.fr,0,NULL,pedro.piressilveira@metro.fr,"On Completion of both Help Desk and Planned Maintenance Work",,INACTIF,October,0,0,0,,NULL,NULL,NULL,"Nicolas DUFAU","Daniel FIGUEIREDO","Pedro PIRES SILVEIRA",,0,0,,,,,,"METRO 238",238-0395,"Entrepot Metro Toulon Bureaux",NULL,NULL,NULL,0,0,0,0,0,0,0,0,0,0,,
71,1090,38,"Entrepot Metro Toulon",8,METRO,"171 Avenue de l'Europe 83140 SIX FOURS LES PLAGES",83140,"METRO France Z.A. du Petit Nanterre 5 rue des Grands Pres 92000 NANTERRE",92000,3.99E+13,33494304263,,"SUD EST",NULL,31521038,165,1991,Trading,NULL,pedro.piressilveira@metro.fr,0,NULL,pedro.piressilveira@metro.fr,"On Completion of both Help Desk and Planned Maintenance Work",,ACTIF,October,0,0,0,,NULL,NULL,"Franck FERREIRA LEAD","Nicolas DUFAU","Daniel FIGUEIREDO","Pedro PIRES SILVEIRA",,0,0,,,,,,"METRO 038",038-0395,"Entrepot Metro Toulon",NULL,NULL,NULL,8375,7574,7181,634,79,"1159,71",165,190,195.24,3072,,
72,1041,103,"Entrepot Metro Chartres",8,METRO,"Z.I. Poillot Rue Charles Coulombs 28000 CHARTRES",28000,"METRO France Z.A. du Petit Nanterre 5 rue des Grands Pres 92000 NANTERRE",92000,3.99E+13,33237887013,,OUEST,NULL,31521103,0,2002,Trading,NULL,j.verdicchio@metro.fr,0,NULL,j.verdicchio@metro.fr,"On Completion of both Help Desk and Planned Maintenance Work",,ACTIF,October,0,0,0,,NULL,NULL,"Maxence LA ROCCA","Philippe LELONGT","Daniel FIGUEIREDO","Jean Pascal VERDICCHIO",,0,0,,,,,,"METRO 103",103-0395,"Entrepot Metro Chartres",NULL,NULL,NULL,3758,8526,2690,322,34,95,73,0,158,4510,,
73,1051,74,"Entrepot Metro Orleans",8,METRO,"Rue des Hauts Champs 45380 LA CHAPELLE ST MESMIN",45380,"METRO France Z.A. du Petit Nanterre 5 rue des Grands Pres 92000 NANTERRE",92000,3.99E+13,33238227220,,OUEST,NULL,31521074,0,1993,Trading,NULL,j.verdicchio@metro.fr,0,NULL,j.verdicchio@metro.fr,"On Completion of both Help Desk and Planned Maintenance Work",,ACTIF,October,0,0,0,,NULL,NULL,"Bruno FOUCQUIER","Philippe LELONGT","Daniel FIGUEIREDO","Jean Pascal VERDICCHIO",,0,0,,,,,,"METRO 074",074-0395,"Entrepot Metro Orleans",NULL,NULL,NULL,4848,4451,3383,394,50,"729,15",0,0,138.49,,,
75,1046,59,"Entrepot Metro Tours",8,METRO,"Boulevard Alfred Nobel 37540 SAINT CYR SUR LOIRE",37540,"METRO France Z.A. du Petit Nanterre 5 rue des Grands Pres 92000 NANTERRE",92000,3.99E+13,33247493900,,OUEST,NULL,31521059,280,2012,Trading,NULL,nicolas.jordan@metro.fr,0,NULL,nicolas.jordan@metro.fr,"On Completion of both Help Desk and Planned Maintenance Work",,ACTIF,October,0,0,0,,NULL,NULL,"Julie DEBELDER","Philippe LELONGT","Daniel FIGUEIREDO","Nicolas JORDAN",,0,0,,,,,,"METRO 059",059-0395,"Entrepot Metro Tours",NULL,NULL,NULL,6461,10285,4555,472,45,700,0,120,180,1732,,
76,1047,56,"Entrepot Metro Poitiers",8,METRO,"Z.I. DE LARNAY Avenue Marcel DASSAULT 86000  POITIERS",86000,"METRO France Z.A. du Petit Nanterre 5 rue des Grands Pres 92000 NANTERRE",92000,3.99E+13,33549523414,,"SUD OUEST",NULL,31521056,0,1995,Trading,NULL,pascal.mangane@metro.fr,0,NULL,pascal.mangane@metro.fr,"On Completion of both Help Desk and Planned Maintenance Work",,ACTIF,October,0,0,0,,NULL,NULL,"Alain LAMOUREUX","Philippe LELONGT","Daniel FIGUEIREDO","Pascal MANGANE",,0,0,,,,,,"METRO 056",056-0395,"Entrepot Metro Poitiers",NULL,NULL,NULL,3113,2767,2476,174,35,"348,01",0,0,95,1204,,
77,1049,65,"Entrepot Metro La Rochelle",8,METRO,"Avenue Paul Langevin 17180 PERIGNY",17180,"METRO France Z.A. du Petit Nanterre 5 rue des Grands Pres 92000 NANTERRE",92000,3.99E+13,33546306914,,"SUD OUEST",NULL,31521065,0,1995,Trading,NULL,pascal.mangane@metro.fr,0,NULL,pascal.mangane@metro.fr,"On Completion of both Help Desk and Planned Maintenance Work",,ACTIF,October,0,0,0,,NULL,NULL,"Charlene MALINOWSKI","Philippe LELONGT","Daniel FIGUEIREDO","Pascal MANGANE",,0,0,,,,,,"METRO 065",065-0395,"Entrepot Metro La Rochelle",NULL,NULL,NULL,4230,2459,2774,188,40,790,0,,123,1403,,
78,1053,78,"Entrepot Metro Angers",8,METRO,"2 Rue du Cloteau ZI D'Angers La Romanerie Nord 49124 SAINT BARTHELEMY D'ANJOU",49124,"METRO France Z.A. du Petit Nanterre 5 rue des Grands Pres 92000 NANTERRE",92000,3.99E+13,33241966414,,OUEST,NULL,31521078,0,1994,Trading,NULL,philippe.boudin@metro.fr,0,NULL,philippe.boudin@metro.fr,"On Completion of both Help Desk and Planned Maintenance Work",,ACTIF,October,0,0,0,,NULL,NULL,"Jean Luc ANDRIVOT","Philippe LELONGT","Daniel FIGUEIREDO","Philippe BOUDIN",,0,0,,,,,,"METRO 078",078-0395,"Entrepot Metro Angers",NULL,NULL,NULL,3519,2430,2778,188,21,500,0,,115,1385,,
79,1054,80,"Entrepot Metro Le Mans",8,METRO,"Chemin de la Foucaudiere 72100 LE MANS",72100,"METRO France Z.A. du Petit Nanterre 5 rue des Grands Pres 92000 NANTERRE",92000,3.99E+13,33243405314,,OUEST,NULL,31521080,0,1994,Trading,NULL,philippe.boudin@metro.fr,0,NULL,philippe.boudin@metro.fr,"On Completion of both Help Desk and Planned Maintenance Work",,ACTIF,October,0,0,0,,NULL,NULL,"Delphine LUCK","Philippe LELONGT","Daniel FIGUEIREDO","Philippe BOUDIN",,0,0,,,,,,"METRO 080",080-0395,"Entrepot Metro Le Mans",NULL,NULL,NULL,3668,5037,3340,319,21,"45,7",0,0,115.76,2844,,
80,1055,50,"Entrepot Metro Henin Beaumont",8,METRO,"Chemin de Noyelles Godault B.P. 37 62252 HENIN BEAUMONT",62252,"METRO France Z.A. du Petit Nanterre 5 rue des Grands Pres 92000 NANTERRE",92000,3.99E+13,33321089214,,"NORD EST",NULL,31521050,0,1992,Trading,NULL,david.ringeval@metro.fr,0,NULL,david.ringeval@metro.fr,"On Completion of both Help Desk and Planned Maintenance Work",,ACTIF,October,0,0,0,,NULL,NULL,"Eric VIANE","Francoise CARLA","Daniel FIGUEIREDO","David RINGEVAL",,0,0,,,,,,"METRO 050",050-0395,"Entrepot Metro Henin Beaumont",NULL,NULL,NULL,8458,3546,3923,519,41,"1002,85",260,55,"158,32",1163,,
81,1056,85,"Entrepot Metro Rennes",8,METRO,"21 rue Kerautret Botmel CS 77419 35044 RENNES Cedex",35044,"METRO France Z.A. du Petit Nanterre 5 rue des Grands Pres 92000 NANTERRE",92000,3.99E+13,33299228013,,OUEST,NULL,31521085,100,1994,Trading,NULL,michel.renou@metro.fr,0,NULL,michel.renou@metro.fr,"On Completion of both Help Desk and Planned Maintenance Work",,ACTIF,October,0,0,0,,NULL,NULL,"Frederic DISIENA","Philippe LELONGT","Daniel FIGUEIREDO","Michel RENOU",,0,0,,,,,,"METRO 085",085-0395,"Entrepot Metro Rennes",NULL,NULL,NULL,5806,3518,4573,264,19,150,120,40,135,1479,,
82,1057,285,"Entrepot Metro Rennes Bureaux",8,METRO,"42 rue Louis Kerautret Botmel 35044 RENNES Cedex",35044,"METRO France Z.A. du Petit Nanterre 5 rue des Grands Pres 92000 NANTERRE",92000,3.99E+13,33299228072,,OUEST,NULL,31521285,0,1997,Trading,NULL,michel.renou@metro.fr,0,NULL,michel.renou@metro.fr,"On Completion of both Help Desk and Planned Maintenance Work",,ACTIF,October,0,0,0,,NULL,NULL,"Frederic DISIENA","Philippe LELONGT","Daniel FIGUEIREDO","Michel RENOU",,0,0,,,,,,METRO285,285-0395,"Entrepot Metro Rennes Bureau",NULL,NULL,NULL,1550,679,1300,32,10,0,170,0,0,113,,
83,1058,16,"Entrepot Metro Nanterre",8,METRO,"5 rue des Grands Pres 92024 NANTERRE Cedex",92024,"METRO France Z.A. du Petit Nanterre 5 rue des Grands Pres 92000 NANTERRE",92000,3.99E+13,33147866074,,"PARIS ILE DE FRANCE",NULL,31521016,0,1980,Trading,NULL,houcine.ramzi@metro.fr,0,NULL,houcine.ramzi@metro.fr,"On Completion of both Help Desk and Planned Maintenance Work",,ACTIF,October,0,0,0,,NULL,NULL,"Herve PIERREL","Francoise CARLA","Daniel FIGUEIREDO","Houcine RAMZI",,0,0,,,,,,"METRO 016",016-0395,"Entrepot Metro Nanterre",NULL,NULL,NULL,23351,7181,15461,1416,226,3672,0,0,215,2930,,
84,1060,15,"Entrepot Metro Vitry",8,METRO,"67-73, Rue Champollion 94401 VITRY SUR SEINE CEDEX",94401,"METRO France Z.A. du Petit Nanterre 5 rue des Grands Pres 92000 NANTERRE",92000,3.99E+13,33145158804,,"PARIS ILE DE FRANCE",NULL,31521015,0,1977,Trading,NULL,a.kotuba@metro.fr,0,NULL,a.kotuba@metro.fr,"On Completion of both Help Desk and Planned Maintenance Work",,ACTIF,October,0,0,0,,NULL,NULL,"Nicolas CORBEL","Francoise CARLA","Daniel FIGUEIREDO","Alain KOTUBA",,0,0,,,,,,"METRO 015",015-0395,"Entrepot Metro Vitry",NULL,NULL,NULL,20979,14939,14671,1286,130,1919,0,,180,2997,,
85,1061,82,"Entrepot Metro Cergy",8,METRO,"Parc Activites du Vert Galant Avenue du Fond de Vaux 95310 ST OUEN L AUMONE",95310,"METRO France Z.A. du Petit Nanterre 5 rue des Grands Pres 92000 NANTERRE",92000,3.99E+13,33134325713,,"PARIS ILE DE FRANCE",NULL,31521082,0,1994,Trading,NULL,paul.couturier@metro.fr,0,NULL,paul.couturier@metro.fr,"On Completion of both Help Desk and Planned Maintenance Work",,ACTIF,October,0,0,0,,NULL,NULL,"Jean Philippe DEYRIS","Francoise CARLA","Daniel FIGUEIREDO","Paul COUTURIER",,0,0,,,,,,"METRO 082",082-0395,"Entrepot Metro Cergy",NULL,NULL,NULL,4639,3718,3400,380,50,679,0,,"145,97",1585,,
86,1064,81,"Entrepot Metro Dijon",8,METRO,"Boulevard Charles De Gaulle 21160 MARSANNAY LA COTE",21160,"METRO France Z.A. du Petit Nanterre 5 rue des Grands Pres 92000 NANTERRE",92000,3.99E+13,33380593414,,"CENTRE EST",NULL,31521081,93,1994,Trading,NULL,fabrice.daret@metro.fr,0,NULL,fabrice.daret@metro.fr,"On Completion of both Help Desk and Planned Maintenance Work",,ACTIF,October,0,0,0,,NULL,NULL,"Yves DERVIEUX","Mickael POULET","Daniel FIGUEIREDO","Fabrice DARET",,0,0,,,,,,"METRO 081",081-0395,"Entrepot Metro Dijon",NULL,NULL,NULL,4581,2884,3437,335,45,570,0,0,204,1246,,
87,1075,64,"Entrepot Metro Chalon",8,METRO,"Rue Louis Alphonse Poitevin 71380  SAINT MARCEL",71380,"METRO France Z.A. du Petit Nanterre 5 rue des Grands Pres 92000 NANTERRE",92000,3.99E+13,33385426914,,"CENTRE EST",NULL,31521064,65,1996,Trading,NULL,fabrice.daret@metro.fr,0,NULL,fabrice.daret@metro.fr,"On Completion of both Help Desk and Planned Maintenance Work",,ACTIF,October,0,0,0,,NULL,NULL,"Eric HERB","Mickael POULET","Daniel FIGUEIREDO","Fabrice DARET",,0,0,,,,,,"METRO 064",064-0395,"Entrepot Metro Chalon",NULL,NULL,NULL,3522,4876,2706,170,18,170,0,,170,2515,,
88,1067,255,"Entrepot Metro Metz Bureaux",8,METRO,"Rue du Trou aux Serpents Z.A.C. du Port Autonome de Metz 57000 METZ",57050,"METRO France Z.A. du Petit Nanterre 5 rue des Grands Pres 92000 NANTERRE",92000,3.99E+13,33387342850,,"NORD EST",NULL,31521255,0,1992,Trading,NULL,david.robert@metro.fr,0,NULL,david.robert@metro.fr,"On Completion of both Help Desk and Planned Maintenance Work",,ACTIF,October,0,0,0,,NULL,NULL,"Jean Michel BRAUN","Mickael POULET","Daniel FIGUEIREDO","David ROBERT",,0,0,,,,,,"METRO 255",255-0395,"Entrepot Metro Metz Bureau",NULL,NULL,NULL,,,0,0,0,0,0,,,0,,
89,1066,55,"Entrepot Metro Metz",8,METRO,"Rue du Trou aux Serpents Z.A.C. du Port Autonome de Metz 57000 METZ",57000,"METRO France Z.A. du Petit Nanterre 5 rue des Grands Pres 92000 NANTERRE",92000,3.99E+13,33387342800,,"NORD EST",NULL,31521055,166,1992,Trading,NULL,david.robert@metro.fr,0,NULL,david.robert@metro.fr,"On Completion of both Help Desk and Planned Maintenance Work",,ACTIF,October,0,0,0,,NULL,NULL,"Jean Michel BRAUN","Mickael POULET","Daniel FIGUEIREDO","David ROBERT",,0,0,,,,,,"METRO 055",055-0395,"Entrepot Metro Metz",NULL,NULL,NULL,7973,6104,5912,467,37,"936,53",330,0,127.95,,,
90,1068,77,"Entrepot Metro Bourg En Bresse",8,METRO,"Parc de la Chambiere 55 rue Faraday 01440 VIRIAT",1440,"METRO France Z.A. du Petit Nanterre 5 rue des Grands Pres 92000 NANTERRE",92000,3.99E+13,33474455014,,"CENTRE EST",NULL,31521077,55,1994,Trading,NULL,fabien.levenez@metro.fr,0,NULL,fabien.levenez@metro.fr,"On Completion of both Help Desk and Planned Maintenance Work",,ACTIF,October,0,0,0,,NULL,NULL,"Benjamin NADAU","Mickael POULET","Daniel FIGUEIREDO","Fabien LEVENEZ",,0,0,,,,,,"METRO 077",077-0395,"Entrepot Metro Bourg en Bresse",NULL,NULL,NULL,3714,4035,2891,226,22,"513,32",0,,117.59,2386,,
91,1069,58,"Entrepot Metro Bourges",8,METRO,"Z.A.C. de Beaulieu 18 Route Charles Durand 18021 BOURGES CEDEX",18021,"METRO France Z.A. du Petit Nanterre 5 rue des Grands Pres 92000 NANTERRE",92000,3.99E+13,33248509219,,OUEST,NULL,31521058,80,1995,Trading,NULL,martial.chapuriat@metro.fr,0,NULL,martial.chapuriat@metro.fr,"On Completion of both Help Desk and Planned Maintenance Work",,ACTIF,October,0,0,0,,NULL,NULL,"Nicolas JORDAN","Mickael POULET","Daniel FIGUEIREDO","Martial CHAPURLAT",,0,0,,,,,,"METRO 058",058-0395,"Entrepot Metro Bourges",NULL,NULL,NULL,3511,2488,2725,178,36,300,0,40,120,1241,,
92,1076,132,"Entrepot Metro Charleville Mezieres",8,METRO,"Z.A. de la Forge Avenue Carnot 08000 CHARLEVILLE MEZIERES",8000,"METRO France Z.A. du Petit Nanterre 5 rue des Grands Pres 92000 NANTERRE",92000,3.99E+13,33324556713,,"NORD EST",NULL,31521132,40,2005,Trading,NULL,cedric.petit@metro.fr,0,NULL,cedric.petit@metro.fr,"On Completion of both Help Desk and Planned Maintenance Work",,ACTIF,October,0,0,0,,NULL,NULL,"Reynald WALCART","Mickael POULET","Daniel FIGUEIREDO","Cedric PETIT",,0,0,,,,,,"METRO 132",132-0395,"Entrepot Metro Charleville Mezieres",NULL,NULL,NULL,3648,2031,2787,176,33,523,75,"12,1","124,96",935,,
93,1070,70,"Entrepot Metro Reims",8,METRO,"83, Rue Ernest Renan 51100 REIMS",51100,"METRO France Z.A. du Petit Nanterre 5 rue des Grands Pres 92000 NANTERRE",92000,3.99E+13,33326869414,,"NORD EST",NULL,31521070,97,1993,Trading,NULL,cedric.petit@metro.fr,0,NULL,cedric.petit@metro.fr,"On Completion of both Help Desk and Planned Maintenance Work",,ACTIF,October,0,0,0,,NULL,NULL,"Frederic CHAPET","Mickael POULET","Daniel FIGUEIREDO","Cedric PETIT",,0,0,,,,,,"METRO 070",070-0395,"Entrepot Metro Reims",NULL,NULL,NULL,6202,5114,4612,409,41,749,135,,153,1341,,
94,1071,270,"Entrepot Metro Reims Bureaux",8,METRO,"83, Rue Ernest Renan 51100 REIMS",51100,"METRO France Z.A. du Petit Nanterre 5 rue des Grands Pres 92000 NANTERRE",92000,3.99E+13,33326869442,,"NORD EST",NULL,31521270,0,1993,Trading,NULL,cedric.petit@metro.fr,0,NULL,cedric.petit@metro.fr,"On Completion of both Help Desk and Planned Maintenance Work",,ACTIF,October,0,0,0,,NULL,NULL,"Frederic CHAPET","Mickael POULET","Daniel FIGUEIREDO","Cedric PETIT",,0,0,,,,,,"METRO 270",270-0395,"Entrepot Metro Reims Bureau",NULL,NULL,NULL,1521,6846,1480,0,0,0,176,,,0,,
95,1072,54,"Entrepot Metro Nancy",8,METRO,"Rond-point Jarville Rue Marcel Brot 54000 NANCY",54000,"METRO France Z.A. du Petit Nanterre 5 rue des Grands Pres 92000 NANTERRE",92000,3.99E+13,33383177814,,"NORD EST",NULL,31521054,145,1993,Trading,NULL,michel.gigout@metro.fr,0,NULL,michel.gigout@metro.fr,"On Completion of both Help Desk and Planned Maintenance Work",,ACTIF,October,0,0,0,,NULL,NULL,"Emmanuel COUTURIAUX","Mickael POULET","Daniel FIGUEIREDO","Michel GIGOUT",,0,0,,,,,,"METRO 054",054-0395,"Entrepot Metro Nancy",NULL,NULL,NULL,4980,4810,3365,440,12,820,0,,144,1741,,
96,1073,49,"Entrepot Metro Epinal",8,METRO,"Z.A.C. de la Roche 19 Allee des Rapailles 88000 EPINAL",88000,"METRO France Z.A. du Petit Nanterre 5 rue des Grands Pres 92000 NANTERRE",92000,3.99E+13,33329386014,,"NORD EST",NULL,31521049,119,2001,Trading,NULL,michel.gigout@metro.fr,0,NULL,michel.gigout@metro.fr,"On Completion of both Help Desk and Planned Maintenance Work",,ACTIF,October,0,0,0,,NULL,NULL,"Catherine JERVIS","Mickael POULET","Daniel FIGUEIREDO","Michel GIGOUT",,0,0,,,,,,"METRO 049",049-0395,"Entrepot Metro Epinal",NULL,NULL,NULL,3550,5217,2603,196,16,611,0,,116,2571,,
97,1074,21,"Entrepot Metro Anglet",8,METRO,"Parc d'Activit� de Maignon 7 rue du Moulin de Brindos 64600 ANGLET",64600,"METRO France Z.A. du Petit Nanterre 5 rue des Grands Pres 92000 NANTERRE",92000,3.99E+13,33559313413,,"SUD OUEST",NULL,31521021,0,1997,Trading,NULL,fabrice.lanore@metro.fr,0,NULL,fabrice.lanore@metro.fr,"On Completion of both Help Desk and Planned Maintenance Work",,ACTIF,October,0,0,0,,NULL,NULL,"Laurence ROYER","Christophe PELLIZZON","Daniel FIGUEIREDO","Francis BOLARD",,0,0,,,,,,"METRO 021",021-0395,"Entrepot Metro Anglet",NULL,NULL,NULL,4536,8013,3312,364,61,650,0,0,98,2765,,
98,1092,39,"Entrepot Metro Saint Etienne",8,METRO,"38 Rue des 3 Glorieuses 42000 ST ETIENNE",42000,"METRO France Z.A. du Petit Nanterre 5 rue des Grands Pres 92000 NANTERRE",92000,3.99E+13,33477928704,,"CENTRE EST",NULL,31521039,0,1992,Trading,NULL,roland.lerissel@metro.fr,0,NULL,roland.lerissel@metro.fr,"On Completion of both Help Desk and Planned Maintenance Work",,ACTIF,October,0,0,0,,NULL,NULL,"Ender SEN","Mickael POULET","Daniel FIGUEIREDO","Roland LERISSEL",,0,0,,,,,,"METRO 039",039-0395,"Entrepot Metro Saint Etienne",NULL,NULL,NULL,6745,3496,4353,400,43,760,350,,143,1250,,
99,1093,239,"Entrepot Metro Saint Etienne Bureaux",8,METRO,"38 Rue des 3 Glorieuses 42000 ST ETIENNE",42000,"METRO France Z.A. du Petit Nanterre 5 rue des Grands Pres 92000 NANTERRE",92000,3.99E+13,33477928704,,"CENTRE EST",NULL,31521224,0,1992,Trading,NULL,roland.lerissel@metro.fr,0,NULL,roland.lerissel@metro.fr,"On Completion of both Help Desk and Planned Maintenance Work",,INACTIF,October,0,0,0,,NULL,NULL,"Ender SEN","Mickael POULET","Daniel FIGUEIREDO","Roland LERISSEL",,0,0,,,,,,"METRO 239",239-0395,"Entrepot Metro Saint Etienne Bureaux",NULL,NULL,NULL,,,4850,300,40,0,0,,,0,,
100,1077,57,"Entrepot Metro Clermont Ferrand",8,METRO,"28 boulevard Louis Chartoire ZI de la Combaude Sud 63000  CLERMONT-FERRAND",63000,"METRO France Z.A. du Petit Nanterre 5 rue des Grands Pres 92000 NANTERRE",92000,3.99E+13,33473981714,,"CENTRE EST",NULL,31521057,90,1993,Trading,NULL,roland.lerissel@metro.fr,0,NULL,roland.lerissel@metro.fr,"On Completion of both Help Desk and Planned Maintenance Work",,ACTIF,October,0,0,0,,NULL,NULL,"Guillaume HUGON","Mickael POULET","Daniel FIGUEIREDO","Roland LERISSEL",,0,0,,,,,,"METRO 057",057-0395,"Entrepot Metro Clermont Ferrand",NULL,NULL,NULL,5283,7932,3929,353,58,733,55,75,131,1805,,
101,1088,37,"Entrepot Metro Strasbourg",8,METRO,"Z.A 37 rue des Tuileries 67460 SOUFFELWEEYERSHEIM",67460,"METRO France Z.A. du Petit Nanterre 5 rue des Grands Pres 92000 NANTERRE",92000,3.99E+13,33388209709,,"NORD EST",NULL,31521037,90,1991,Trading,NULL,christophe.pardo@metro.fr,0,NULL,christophe.pardo@metro.fr,"On Completion of both Help Desk and Planned Maintenance Work",,ACTIF,October,0,0,0,,NULL,NULL,"Valentin MOISSON","Mickael POULET","Daniel FIGUEIREDO","Christophe PARDO",,0,0,,,,,,"METRO 037",037-0395,"Entrepot Metro Strasbourg",NULL,NULL,NULL,6865,6592,8111,870,94,"342,03",130,0,128,2953,,
102,1089,237,"Entrepot Metro Strasbourg Bureaux",8,METRO,"Z.A 37 rue des Tuileries 67460 SOUFFELWEEYERSHEIM",67460,"METRO France Z.A. du Petit Nanterre 5 rue des Grands Pres 92000 NANTERRE",92000,3.99E+13,33388209742,,"NORD EST",NULL,31521237,0,1997,Trading,NULL,christophe.pardo@metro.fr,0,NULL,christophe.pardo@metro.fr,"On Completion of both Help Desk and Planned Maintenance Work",,ACTIF,October,0,0,0,,NULL,NULL,"Valentin MOISSON","Mickael POULET","Daniel FIGUEIREDO","Christophe PARDO",,0,0,,,,,,"METRO 237",237-0395,"Entrepot Metro Strasbourg",NULL,NULL,NULL,3011,6592,2448,180,83,0,300,0,0,2741,,
103,1104,66,"Entrepot Metro Narbonne",8,METRO,"Avenue de Croix Sud 11100 NARBONNE",11100,"METRO France Z.A. du Petit Nanterre 5 rue des Grands pres 92000 NANTERRE",92000,3.99E+13,33468581214,,"SUD EST",NULL,31521066,96,1995,Trading,NULL,david.labruyere@metro.fr,0,NULL,david.labruyere@metro.fr,"On Completion of both Help Desk and Planned Maintenance Work",,ACTIF,October,0,0,0,,NULL,NULL,"Herve FIETTE","Nicolas DUFAU","Daniel FIGUEIREDO","David LABRUYERE",,0,0,,,,,,"METRO 066",066-0395,"Entrepot Metro Narbonne",NULL,NULL,NULL,3486,10860,2572,187,19,"367,28",0,39.3,115.9,7189,,
104,1108,75,"Entrepot Metro Perpignan",8,METRO,"Z.A.C. Saint Charles 550 avenue de Milan 66000 PERPIGNAN",66000,"METRO France Z.A. du Petit Nanterre 5 rue des Grands Pres 92000 NANTERRE",92000,3.99E+13,33468562514,,"SUD EST",NULL,31521075,132,1993,Trading,NULL,david.labruyere@metro.fr,0,NULL,david.labruyere@metro.fr,"On Completion of both Help Desk and Planned Maintenance Work",,ACTIF,October,0,0,0,,NULL,NULL,"Pascal NOWAK","Nicolas DUFAU","Daniel FIGUEIREDO","David LABRUYERE",,0,0,,,,,,"METRO 075",075-0395,"Entrepot Metro Perpignan",NULL,NULL,NULL,5610,3788,3932,424,53,999,0,101,144,1712,,
105,1101,52,"Entrepot Metro Limonest",8,METRO,"Parc d'Activit� de Limonest Chemin de la Bruyere 69760 LIMONEST",69760,"METRO France Z.A. du Petit Nanterre 5 rue des Grands Pres 92000 NANTERRE",92000,3.99E+13,33472172819,,"CENTRE EST",NULL,31521052,0,1992,Trading,NULL,,0,NULL,daniel.bimoz@metro.fr,"On Completion of both Help Desk and Planned Maintenance Work",daniel.bimoz@metro.fr,ACTIF,October,0,0,0,,NULL,NULL,"Dominique SABATIER","Mickael POULET","Daniel FIGUEIREDO","Daniel BIMOZ",,0,0,,,,,,"METRO 052",052-0395,"Entrepot Metro Limonest",NULL,NULL,NULL,10243,7777,7760,612,109,"1025,04",343,55,179.99,2587,,
106,1102,252,"Entrepot Metro Limonest Bureaux",8,METRO,"Parc d'Activit� de Limonest Chemin de la Bruyere 69760 LIMONEST",69760,"METRO France Z.A. du Petit Nanterre 5 rue des Grands Pres 92000 NANTERRE",92000,3.99E+13,33472172819,,"CENTRE EST",NULL,31521252,0,1992,Trading,NULL,daniel.bimoz@metro.fr,0,NULL,daniel.bimoz@metro.fr,"On Completion of both Help Desk and Planned Maintenance Work",,ACTIF,October,0,0,0,,NULL,NULL,"Dominique SABATIER","Mickael POULET","Daniel FIGUEIREDO","Daniel BIMOZ",,0,0,,,,,,METRO252,252-0395,"Entrepot Metro Limonest Bureaux",NULL,NULL,NULL,,,890,0,0,0,0,,,0,,
107,1105,67,"Entrepot Metro Auxerre Moneteau",8,METRO,"Parc d'Activit�s des Terres du Canada 89470 MONETEAU",89470,"METRO France Z.A. du Petit Nanterre 5 rue des Grands Pres 92000 NANTERRE",92000,3.99E+13,33386534713,,"NORD EST",NULL,31521067,98,2000,Trading,NULL,michel.szabat@metro.fr,0,NULL,michel.szabat@metro.fr,"On Completion of both Help Desk and Planned Maintenance Work",,ACTIF,October,0,0,0,,NULL,NULL,"Philippe BULANT","Mickael POULET","Daniel FIGUEIREDO","Michel SZABAT",,0,0,,,,,,"METRO 067",067-0395,"Entrepot Metro Auxerre",NULL,NULL,NULL,3513,2281,2726,189,33,481,114,,121,1652,,
108,1081,46,"Entrepot Metro Troyes",8,METRO,"Les Terasses de Baires 10410 SAINT PARRES AUX TERTRES",10410,"METRO France Z.A. du Petit Nanterre 5 rue des Grands Pres 92000 NANTERRE",92000,3.99E+13,33325427215,,"NORD EST",NULL,31521046,100,2001,Trading,NULL,michel.szabat@metro.fr,0,NULL,michel.szabat@metro.fr,"On Completion of both Help Desk and Planned Maintenance Work",,ACTIF,October,0,0,0,,NULL,NULL,"Mathieu FIRMIN","Mickael POULET","Daniel FIGUEIREDO","Michel SZABAT",,0,0,,,,,,"METRO 046",046-0395,"Entrepot Metro Troyes",NULL,NULL,NULL,3592,5758,2758,211,52,616,167,,115,2837,,
109,1106,71,"Entrepot Metro Avignon",8,METRO,"March� d'Inter�t National AVIGNON SUD 135, avenue Pierre Semard 84000 AVIGNON",84000,"METRO France Z.A. du Petit Nanterre 5 rue des Grands pres 92000 NANTERRE",92000,3.99E+13,33490135800,,"SUD EST",NULL,31521071,157,1993,Trading,NULL,jeanmichel.clemenson@metro.fr,0,NULL,jeanmichel.clemenson@metro.fr,"On Completion of both Help Desk and Planned Maintenance Work",,ACTIF,October,0,0,0,,NULL,NULL,"Frederic CRUZ","Nicolas DUFAU","Daniel FIGUEIREDO","Jean Michel CLEMENSON",,0,0,,,,,,"METRO 071",071-0395,"Entrepot Metro Avignon",NULL,NULL,NULL,8491,5730,6495,484,40,641,436,1190,128,3688,,
110,1107,271,"Entrepot Metro Avignon Bureaux",8,METRO,"March� d'Inter�t National AVIGNON SUD 135, avenue Pierre Semard 84000 AVIGNON",84000,"METRO France Z.A. du Petit Nanterre 5 rue des Grands pres 92000 NANTERRE",92000,3.99E+13,33490135850,,"SUD EST",NULL,31521271,0,1993,Trading,NULL,jeanmichel.clemenson@metro.fr,0,NULL,jeanmichel.clemenson@metro.fr,"On Completion of both Help Desk and Planned Maintenance Work",,ACTIF,October,0,0,0,,NULL,NULL,"Frederic CRUZ","Nicolas DUFAU","Daniel FIGUEIREDO","Jean Michel CLEMENSON",,0,0,,,,,,"METRO 271",271-0395,"Entrepot Metro Avignon Bureaux",NULL,NULL,NULL,2700,6062,2400,57,0,0,600,,,0,,
111,1078,19,"Entrepot Metro Chambery Voglans",8,METRO,"Parc d'Activit� La Dent du Chat 73420 VOGLANS",73420,"METRO France Z.A. du Petit Nanterre 5 rue des Grands Pres 92000 NANTERRE",92000,3.99E+13,33676795020,,"CENTRE EST",NULL,31521019,80,2000,Trading,NULL,mathieu.gillet@metro.fr,0,NULL,mathieu.gillet@metro.fr,"On Completion of both Help Desk and Planned Maintenance Work",,ACTIF,October,0,0,0,,NULL,NULL,"Tonino BIANCO","Nicolas DUFAU","Daniel FIGUEIREDO","Mathieu GILLET",,0,0,,,,,,"METRO 019",019-0395,"Entrepot Metro Chambery",NULL,NULL,NULL,3735,9732,2728,213,32,575,0,,116,4161,,
112,1099,41,"Entrepot Metro Albertville",8,METRO,"Zone d'Activit� des Vernes 33 rue Robert Piddat 73200 ALBERTVILLE",73200,"METRO France Z.A. du Petit Nanterre 5 rue des Grands Pres 92000 NANTERRE",92000,3.99E+13,33479100803,,"CENTRE EST",NULL,31521041,80,2000,Trading,NULL,mathieu.gillet@metro.fr,0,NULL,mathieu.gillet@metro.fr,"On Completion of both Help Desk and Planned Maintenance Work",,ACTIF,October,0,0,0,,NULL,NULL,"Xavier LAURENT","Nicolas DUFAU","Daniel FIGUEIREDO","Mathieu GILLET",,0,0,,,,,,"METRO 041",041-0395,"Entrepot Metro Albertville",NULL,NULL,NULL,3550,5478,2705,220,32,590,0,0,119,3265,,
113,1109,84,"Entrepot Metro Valence",8,METRO,"P�le d'Activit�s Briffaut Est avenue Maurice Simonet BP88 26903 VALENCE CEDEX 9",26903,"METRO France Z.A. du Petit Nanterre 5 rue des Grands Pres 92000 NANTERRE",92000,3.99E+13,33475827014,,"CENTRE EST",NULL,31521084,101,1994,Trading,NULL,valence.respentretien@metro.fr,0,NULL,valence.respentretien@metro.fr,"On Completion of both Help Desk and Planned Maintenance Work",,ACTIF,October,0,0,0,,NULL,NULL,"Jean-Michel MOUCHERON","Nicolas DUFAU","Daniel FIGUEIREDO","Yann GENISSIEUX",,0,0,,,,,,"METRO 084",084-0395,"Entrepot Metro Valence",NULL,NULL,NULL,4326,2289,3287,227,20,"503,69",0,0,122.42,1463,,
114,1080,35,"Entrepot Metro Grenoble Sassenage",8,METRO,"Z.I. l'Argenti�re 8, rue Fran�ois Blumet 38360 SASSENAGE",38360,"METRO France Z.A. du Petit Nanterre 5 rue des Grands Pres 92000 NANTERRE",92000,3.99E+13,33476868035,,"CENTRE EST",NULL,31521035,180,1991,Trading,NULL,yoann.esprit@metro.fr,0,NULL,yoann.esprit@metro.fr,"On Completion of both Help Desk and Planned Maintenance Work",,ACTIF,October,0,0,0,,NULL,NULL,"Etienne FONTENEAU","Nicolas DUFAU","Daniel FIGUEIREDO","Yoann ESPRIT",,0,0,,,,,,"METRO 035",035-0395,"Entrepot Metro Grenoble",NULL,NULL,NULL,10217,3690,7690,777,104,1372,245,1380,187,3027,,
115,1110,88,"Entrepot Metro Annecy",8,METRO,"Z.A.C des romains Lieu-Dit La Salle All�e Jean Mermoz B.P. 9 74961 CRAN GEVRIER",74961,"METRO France Z.A. du Petit Nanterre 5 rue des Grands Pres 92000 NANTERRE",92000,3.99E+13,33450666113,,"CENTRE EST",NULL,31521088,0,1995,Trading,NULL,louis.lee-a-hing@metro.fr,0,NULL,louis.lee-a-hing@metro.fr,"On Completion of both Help Desk and Planned Maintenance Work",,ACTIF,October,0,0,0,,NULL,NULL,"David FAURE","Nicolas DUFAU","Daniel FIGUEIREDO","Louis LEE A HING",,0,0,,,,,,"METRO 088",088-0395,"Entrepot Metro Annecy",NULL,NULL,NULL,4602,5279,3407,298,22,613,0,0,146,2812,,
116,1079,30,"Entrepot Metro Vaulx En Velin",8,METRO,"Z.I. les Rubines 2 avenue Charles de Gaulle BP150 69512 VAULX EN VELIN Cedex",69512,"METRO France Z.A. du Petit Nanterre 5 rue des Grands Pres 92000 NANTERRE",92000,3.99E+13,33472047414,,"CENTRE EST",NULL,31521030,130,1987,Trading,NULL,driss.elfikri@metro.fr,0,NULL,driss.elfikri@metro.fr,"On Completion of both Help Desk and Planned Maintenance Work",,ACTIF,October,0,0,0,,NULL,NULL,"Arnaud LABBE","Mickael POULET","Daniel FIGUEIREDO","Driss EL FIKRI",,0,0,,,,,,"METRO 030",030-0395,"Entrepot Metro Vaulx En Velin",NULL,NULL,NULL,16131,11136,12252,942,80,2287,770,80,250,2240,,
117,1112,136,"Entrepot Metro Frejus",8,METRO,"ZI du capitou de l'Esterel 834 avenue Jean Lachenaud 83600 FREJUS",83600,"METRO France Z.A. du Petit Nanterre 5 rue des Grands Pres 92000 NANTERRE",92000,3.99E+13,33494177313,,"SUD EST",NULL,31521136,0,2008,Trading,NULL,herve.gisclard@metro.fr,0,NULL,herve.gisclard@metro.fr,"On Completion of both Help Desk and Planned Maintenance Work",,ACTIF,October,0,0,0,,NULL,NULL,"Emmanuel Jacques CHAUVET","Nicolas DUFAU","Daniel FIGUEIREDO","Herve GISCLARD",,0,0,,,,,,"METRO 136",136-0395,"Entrepot Metro Frejus",NULL,NULL,NULL,5836,9758,4639,245,30,"515,44",130,0,98.05,3508,,
118,1113,236,"Entrepot Metro Frejus Bureaux",8,METRO,"ZI du capitou de l'Esterel 834 avenue Jean Lachenaud 83600 FREJUS",83600,"METRO France Z.A. du Petit Nanterre 5 rue des Grands Pres 92000 NANTERRE",92000,3.99E+13,33494177363,,"SUD EST",NULL,31521184,0,2008,Trading,NULL,herve.gisclard@metro.fr,0,NULL,herve.gisclard@metro.fr,"On Completion of both Help Desk and Planned Maintenance Work",,ACTIF,October,0,0,0,,NULL,NULL,"Emmanuel Jacques CHAUVET","Nicolas DUFAU","Daniel FIGUEIREDO","Herve GISCLARD",,0,0,,,,,,"METRO 236",236-0395,"Entrepot Metro Frejus Bureaux",NULL,NULL,NULL,0,0,0,0,0,0,0,0,0,0,,
119,1095,61,"Entrepot Metro Saint Quentin",8,METRO,"Z.I. Le Royeux 02430 GAUCHY",2430,"METRO France Z.A. du Petit Nanterre 5 rue des Grands Pres 92000 NANTERRE",92000,,33323656121,,"NORD EST",NULL,31521061,0,1998,Trading,NULL,jeanfrancois.wuiot@metro.fr,0,NULL,jeanfrancois.wuiot@metro.fr,"On Completion of both Help Desk and Planned Maintenance Work",,ACTIF,October,0,0,0,,NULL,NULL,"Alexandre SCHEKROUN","Mickael POULET","Daniel FIGUEIREDO","Jean Francois WUIOT",,0,0,,,,,,"METRO 061",061-0395,"Entrepot Metro Saint Quentin",NULL,NULL,NULL,3566,4600,2693,186,22,500898,91,0,"114,42",2152,,
120,1103,63,"Entrepot Metro Chamonix Passy",8,METRO,"ZI des Raches PAE du Mont Blanc 195 rue de l'Adret 74190 PASSY",74190,"METRO France Z.A. du Petit Nanterre 5 rue des Grands Pres 92000 NANTERRE",92000,3.99E+13,33450784107,,"CENTRE EST",NULL,31521063,50,1995,Trading,NULL,joseph.collot@metro.fr,0,NULL,joseph.collot@metro.fr,"On Completion of both Help Desk and Planned Maintenance Work",,ACTIF,October,0,0,0,,NULL,NULL,"Benjamin FREDJ","Nicolas DUFAU","Daniel FIGUEIREDO","Joseph COLLOT",,0,0,,,,,,METRO063,063-0395,"Entrepot Metro Chamonix Passy",NULL,NULL,NULL,3522,4410,2722,185,32,"590,46",0,0,118.69,2291,,
121,1111,102,"Entrepot Metro Annemasse",8,METRO,"Rue du bois de la rose 74100 VILLE LA GRAND",74100,"METRO France Z.A. du Petit Nanterre 5 rue des Grands Pres 92000 NANTERRE",92000,3.99E+13,33450744513,,"CENTRE EST",NULL,31521102,50,2004,Trading,NULL,joseph.collot@metro.fr,0,NULL,joseph.collot@metro.fr,"On Completion of both Help Desk and Planned Maintenance Work",,ACTIF,October,0,0,0,,NULL,NULL,"Stephane ABADIA","Nicolas DUFAU","Daniel FIGUEIREDO","Joseph COLLOT",,0,0,,,,,,"METRO 102",102-0395,"Entrepot Metro Annemasse",NULL,NULL,NULL,3810,3170,2849,265,22,587,0,,108,1617,,
122,1082,11,"Entrepot Metro Chennevieres",8,METRO,"8, Rue Gay Lussac 94430  CHENNEVIERES SUR MARNE",94430,"METRO France Z.A. du Petit Nanterre 5 rue des Grands Pres 92000 NANTERRE",92000,3.99E+13,33149622216,,"PARIS ILE DE FRANCE",NULL,31521011,25,1972,Trading,NULL,christophe.george@metro.fr,0,NULL,christophe.george@metro.fr,"On Completion of both Help Desk and Planned Maintenance Work",,ACTIF,October,0,0,0,,NULL,NULL,"Thierry DUCARROIR","Francoise CARLA","Daniel FIGUEIREDO","Christophe GEORGE",,0,0,,,,,,METRO011,011-0395,"Entrepot Metro Chennevieres",NULL,NULL,NULL,18661,13971,10045,1022,96,2628,833,1632,175,2940,,
123,1097,72,"Entrepot Metro Agen",8,METRO,"All�e des Riols Lieu dit La Capelette 47000 AGEN",47000,"METRO France Z.A. du Petit Nanterre 5 rue des Grands Pres 92000 NANTERRE",92000,3.99E+13,33553778807,,"SUD OUEST",NULL,31521072,0,,Trading,NULL,c.fournet-fayard@metro.fr,0,NULL,c.fournet-fayard@metro.fr,"On Completion of both Help Desk and Planned Maintenance Work",,ACTIF,October,0,0,0,,NULL,NULL,"Thierry PASQUIER","Christophe PELLIZZON","Daniel FIGUEIREDO","Christian FOURNET FAYART",,0,0,,,,,,"METRO 072",072-0395,"Entrepot Metro Agen",NULL,NULL,NULL,,,0,0,0,0,0,,,0,,
124,1086,33,"Entrepot Metro Toulouse",8,METRO,"Z.I. La Glaciere Impasse Pierre Camo BP 42142 31018 TOULOUSE Cedex",31018,"METRO France Z.A. du Petit Nanterre 5 rue des Grands Pres 92000 NANTERRE",92000,3.99E+13,33534401885,,"SUD OUEST",NULL,31521033,0,1990,Trading,NULL,c.fournet-fayard@metro.fr,0,NULL,c.fournet-fayard@metro.fr,"On Completion of both Help Desk and Planned Maintenance Work",,NULL,,0,0,0,,NULL,NULL,"Marc BEBIC","Christophe PELLIZZON","Daniel FIGUEIREDO","Christian FOURNET FAYART",,0,0,,,,,,"METRO 033",033-0395,"Entrepot Metro Toulouse",NULL,NULL,NULL,11231,7624,7428,679,58,"1372,61",0,0,176.28,2738,,
125,1096,68,"Entrepot Metro Beziers",8,METRO,"ZA Parc Actipolis Avenue du Viguier 34420 VILLENEUVE LES BEZIERS",34420,"METRO France Z.A. du Petit Nanterre 5 rue des Grands Pres 92000 NANTERRE",92000,3.99E+13,33467116313,,"SUD EST",NULL,31521068,0,1997,Trading,NULL,yves.cirre@metro.fr,0,NULL,yves.cirre@metro.fr,"On Completion of both Help Desk and Planned Maintenance Work",,ACTIF,October,0,0,0,,NULL,NULL,"Stephane VESZ","Nicolas DUFAU","Daniel FIGUEIREDO","Yves CIRRE",,0,0,,,,,,"METRO 068",068-0395,"Entrepot Metro Beziers",NULL,NULL,NULL,3566,2303,2775,204,"19,21","540,9",0,39,115.14,1386,,
126,1083,14,"Entrepot Metro Bordeaux",8,METRO,"ZAC de Gros Chemin de Labarde BP 73 33083 BORDEAUX Cedex",33083,"METRO France Z.A. du Petit Nanterre 5 rue des Grands Pres 92000 NANTERRE",92000,3.99E+13,33556434814,,"SUD OUEST",NULL,31521014,0,,Trading,NULL,patrick.cazenave@metro.fr,0,NULL,patrick.cazenave@metro.fr,"On Completion of both Help Desk and Planned Maintenance Work",,ACTIF,October,0,0,0,,NULL,NULL,"Alain AYMOND","Christophe PELLIZZON","Daniel FIGUEIREDO","Patrick CAZENAVE",,0,0,,,,,,"METRO 014",014-0395,"Entrepot Metro Bordeaux",NULL,NULL,NULL,19484,14904,13684,1530,130,2007,1246,1524,173,6003,,
127,1100,44,"Entrepot Metro Gradignan",8,METRO,"17 avenue de l'Europe ZA de Bersol 33170 GRADIGNAN",33170,"METRO France Z.A. du Petit Nanterre 5 rue des Grands Pres 92000 NANTERRE",92000,3.99E+13,33557124814,,"SUD OUEST",NULL,31521044,0,,Trading,NULL,bruno.ricordeau@metro.fr,0,NULL,bruno.ricordeau@metro.fr,"On Completion of Planned Maintenance Work only",,ACTIF,October,0,0,0,,NULL,NULL,"Benedicte LEMETEIL","Christophe PELLIZZON","Daniel FIGUEIREDO","Bruno RICORDEAU",,0,0,,,,,,METRO044,044-0395,"Entrepot Metro Gradignan",NULL,NULL,NULL,10855,7075,4700,568,"123,48",986,352,0,147.17,2427,,
128,1008,27,"Entrepot Metro Cannes",8,METRO,"Rue de la Praderie 06150 CANNES LA BOCCA",6150,"METRO France Z.A. du Petit Nanterre 5 rue des Grands Pres 92000 NANTERRE",92000,3.99E+13,33492199314,,"SUD EST",NULL,31521027,77,2001,Trading,NULL,jeanpierre.gossant@metro.fr,0,NULL,jeanpierre.gossant@metro.fr,"On Completion of both Help Desk and Planned Maintenance Work",,ACTIF,October,0,0,0,,NULL,NULL,"Ludovic VENITUCCI","Nicolas DUFAU","Daniel FIGUEIREDO","Jean Pierre GOSSANT",,0,0,,,,,,"METRO 027",027-0395,"Entrepot Metro Cannes",NULL,NULL,NULL,8800,7864,6749,498,76,54386,0,,"145,7",3024,,
129,1009,227,"Entrepot Metro Cannes Bureaux",8,METRO,"Rue de la Praderie 06150 CANNES LA BOCCA",6150,"METRO France Z.A. du Petit Nanterre 5 rue des Grands Pres 92000 NANTERRE",92000,3.99E+13,33492199364,,"SUD EST",NULL,31521227,0,2001,Trading,NULL,jeanpierre.gossant@metro.fr,0,NULL,jeanpierre.gossant@metro.fr,"On Completion of both Help Desk and Planned Maintenance Work",,ACTIF,October,0,0,0,,NULL,NULL,"Ludovic VENITUCCI","Nicolas DUFAU","Daniel FIGUEIREDO","Jean Pierre GOSSANT",,0,0,,,,,,"METRO 227",227-0395,"Entrepot Metro Cannes Bureaux",NULL,NULL,NULL,3279,,2490,122,555,424,777,,,1010,,
130,1085,32,"Entrepot Metro Nice",8,METRO,"280-288 route de Grenoble 06200 NICE",6200,"METRO France Z.A. du Petit Nanterre 5 rue des Grands Pres 92000 NANTERRE",92000,3.99E+13,33493183159,,"SUD EST",NULL,31521032,210,1989,Trading,NULL,franck.hatier@metro.fr,0,NULL,franck.hatier@metro.fr,"On Completion of both Help Desk and Planned Maintenance Work",,ACTIF,October,0,0,0,,NULL,NULL,"Edmond LAMPIDECCHIA","Nicolas DUFAU","Daniel FIGUEIREDO","Franck HATIER",,0,0,,,,,,"METRO 032",032-0395,"Entrepot Metro Nice",NULL,NULL,NULL,13194,11584,9709,962,81,312,264,150,291,3268,,
131,1087,34,"Entrepot Metro Montpellier",8,METRO,"3274 Avenue Etienne Mehul 34070 MONTPELLIER",34070,"METRO France Z.A. du Petit Nanterre 5 rue des Grands Pres 92000 NANTERRE",92000,3.99E+13,33467077014,,"SUD EST",NULL,31521034,228,1990,Clip,NULL,yves.cirre@metro.fr,0,NULL,yves.cirre@metro.fr,"On Completion of both Help Desk and Planned Maintenance Work",,ACTIF,October,0,0,0,,NULL,NULL,NULL,"Nicolas DUFAU","Daniel FIGUEIREDO","Vincent REYNAUD",,0,0,,,,,,"METRO 034",034-0395,"Entrepot Metro Montpellier",NULL,NULL,NULL,13345,8919,8626,806,60,2184,630,230,218,2915,,
132,1098,146,"Entrepot Metro Venelles",8,METRO,"944 rue de la Gare 13770 VENELLES",13770,"METRO France Z.A. du Petit Nanterre 5 rue des Grands Pres 92000 NANTERRE",92000,3.99E+13,33442959800,,"SUD EST",NULL,31521146,0,,Trading,NULL,michel.lopez@metro.fr,0,NULL,michel.lopez@metro.fr,"On Completion of both Help Desk and Planned Maintenance Work",,ACTIF,October,0,0,0,,NULL,NULL,"Nicolas RUELLO","Nicolas DUFAU","Daniel FIGUEIREDO","Michel LOPEZ",,0,0,,,,,,"METRO 146",146-0395,"Entrepot Metro Venelles",NULL,NULL,NULL,0,450,2768,302,35,0,700,0,172,500,,
133,1084,18,"Entrepot Metro Les Pennes Mirabeau",8,METRO,"Square du General De Gaulle 13757 LES PENNES MIRABEAU",13757,"METRO France Z.A. du Petit Nanterre 5 rue des Grands Pres 92000 NANTERRE",92000,,33442022231,,"SUD EST",NULL,31521018,0,1983,Trading,NULL,michel.lopez@metro.fr,0,NULL,michel.lopez@metro.fr,"On Completion of both Help Desk and Planned Maintenance Work",,ACTIF,October,0,0,0,,NULL,NULL,"Patrice PLUSQUELLEC","Nicolas DUFAU","Daniel FIGUEIREDO","Michel LOPEZ",,0,0,,,,,,"METRO 018",018-0395,"Entrepot Metro Les Pennes Mirabeau",NULL,NULL,NULL,16557,26687,12231,1310,130,1665,0,0,180,4924,,
134,1094,53,"Entrepot Metro Marseille La Valentine",8,METRO,"ZAC La Valentine Montee du Commandant De Robien 13011 MARSEILLE",13011,"METRO France Z.A. du Petit Nanterre 5 rue des Grands Pres 92000 NANTERRE",92000,3.99E+13,33491182600,,"SUD EST",NULL,31521053,162,1992,Trading,NULL,christophe.martin@metro.fr,0,NULL,,"On Completion of both Help Desk and Planned Maintenance Work",,ACTIF,October,0,0,0,,NULL,NULL,NULL,"Nicolas DUFAU","Daniel FIGUEIREDO","Christophe MARTIN",,0,0,,,,,,"METRO 053",053-0395,"Entrepot Metro Marseille La Valentine",NULL,NULL,NULL,8208,9000,5580,408,30,"815,13",175,375,133.41,1912,,
135,1045,22,"Entrepot Metro Nimes",8,METRO,"Z.A. Euro 2000 30132 CAISSARGUES",30132,"METRO France Z.A. du Petit Nanterre 5 rue des Grands Pres 92000 NANTERRE",92000,3.99E+13,33466386600,,"SUD EST",NULL,31521022,130,1996,Trading,NULL,j-f.saulnier@metro.fr,0,NULL,j-f.saulnier@metro.fr,"On Completion of both Help Desk and Planned Maintenance Work",,ACTIF,October,0,0,0,,NULL,NULL,"Stephane VESZ","Nicolas DUFAU","Daniel FIGUEIREDO","Jean Francois SAULNIER",,0,0,,,,,,"METRO 022",022-0395,"Entrepot Metro Nimes",NULL,NULL,NULL,4618,6743,3398,334,50,7412,0,,138.26,3150,,
136,1116,F016,"Entrepot Metro Nanterre Formation",13,"METRO FORMATION","ENTREPOT 5 rue des Grands Pres 92024 NANTERRE Cedex",92024,"COMPTABILITE 5 rue des Grands Pres 92024 NANTERRE Cedex",92024,N�SIRET,33120202020,,"PARIS ILE DE FRANCE",NULL,,0,,Zoom,NULL,geoffrey.depriestre@cg2m.fr,0,NULL,geoffrey.depriestre@cg2m.fr,,,ACTIF,January,0,0,0,,NULL,NULL,"ZZ MANAGER","Nicolas DUFAU","Daniel FIGUEIREDO","F REM",,0,0,,,,,,Metro19,F016-0395,"Entrepot Metro Nanterre Formation",NULL,NULL,NULL,11111,22222,33333,44444,55555,66666,77777,88888,99999,0,,
137,2,160,"Entrepot Metro Ales",8,METRO,"1173 Ancien Chemin de Mons 30100 ALES",30100,"METRO France Z.A. du Petit Nanterre 5 rue des Grands Pres 92000 NANTERRE",92000,3.99E+13,33466438414,,"SUD EST",NULL,31521160,0,2017,Trading,NULL,laurence.guyet@metro.fr,0,NULL,laurence.guyet@metro.fr,"On Completion of both Help Desk and Planned Maintenance Work",,ACTIF,October,0,0,0,,NULL,NULL,"Benoit CLAVE","Nicolas DUFAU","Daniel FIGUEIREDO","Laurence GUYET",,0,0,,,,,,"METRO 160",160-0395,Magasin,NULL,NULL,NULL,,,0,0,0,0,0,,MAGASIN,0,,
138,1006,164,"Entrepot Metro Carcassonne",8,METRO,"460 rue Gustave Eiffel 11000 CARCASSONNE",11000,"METRO France Z.A. du Petit Nanterre 5 rue des Grands Pres 92000 NANTERRE",92000,3.99E+13,33468108414,,"SUD EST",NULL,31521164,0,2017,Clip,NULL,herve.fiette@metro.fr,0,NULL,herve.fiette@metro.fr,"On Completion of both Help Desk and Planned Maintenance Work",,ACTIF,October,0,0,0,,NULL,NULL,"Sarah BARRS","Nicolas DUFAU","Daniel FIGUEIREDO","Sarah BARRS",,0,0,,,,,,"METRO 164",164-0395,Magasin,NULL,NULL,NULL,,,0,0,0,0,0,,,0,,
139,1124,94,"Plateforme Metro Rungis",8,METRO,"25 Rue des Antilles B�timent I2 � zone des entrep�ts 94538 RUNGIS CEDEX",94538,"METRO France ZA. du petit Nanterre 5 Rue des Grands Pres 92000 NANTERRE",92000,3.99E+13,33141803946,,"PARIS ILE DE FRANCE",NULL,31521094,0,,Trading,NULL,jean-luc.noullez@metro.fr,0,NULL,jean-luc.noullez@metro.fr,"On Completion of both Help Desk and Planned Maintenance Work",,ACTIF,October,0,0,0,,NULL,NULL,NULL,"Francoise CARLA","Daniel FIGUEIREDO","Jean Luc NOULLEZ",,0,0,,,,,,"METRO 094",094-3099,"Plateforme Metro Rungis",NULL,NULL,NULL,,,0,0,0,0,0,,,0,,
140,1125,91,"Siege Metro France",8,METRO,"METRO France ZA. du petit Nanterre 5 Rue des Grands Pres 92000 NANTERRE",92000,"METRO France ZA. du petit Nanterre 5 Rue des Grands Pres 92000 NANTERRE",92000,3.99E+13,33688224614,,"PARIS ILE DE FRANCE",NULL,31521091,0,,Trading,NULL,patrice.goze@metro.fr,0,NULL,patrice.goze@metro.fr,"On Completion of both Help Desk and Planned Maintenance Work",,ACTIF,October,0,0,0,,NULL,NULL,NULL,"Francoise CARLA","Daniel FIGUEIREDO","Patrice GOZE",,0,0,,,,,,"METRO 091",091-3099,"Siege Metro France",NULL,NULL,NULL,,,0,16320,0,0,0,,,0,,
141,1037,29,"Entrepot Metro Lorient Lanester",8,METRO,"Route de Kerviec Zone de Lann Sevelin 56600 LANESTER",56600,"METRO France Z.A. du Petit Nanterre 5 rue des Grands Pres 92000 NANTERRE",92000,3.99E+13,33297816613,,OUEST,NULL,31521029,56,2000,Trading,NULL,stephane.orain@metro.fr,0,NULL,stephane.orain@metro.fr,"On Completion of both Help Desk and Planned Maintenance Work",,ACTIF,October,0,0,0,,NULL,NULL,"Clement JANSSENS","Philippe LELONGT","Daniel FIGUEIREDO","Stephane ORAIN",,0,0,,,,,,"METRO 029",029-0395,"Entrepot Metro Lorient Lanester",NULL,NULL,NULL,3550,4245,2782,208,19,250,137,0,75,2969,,
142,1050,69,"Entrepot Metro Vannes",8,METRO,"Lieu dit du Chapeau Rouge 56000 VANNES",56000,"METRO France Z.A. du Petit Nanterre 5 rue des Grands Pres 92000 NANTERRE",92000,3.99E+13,33297455813,,OUEST,NULL,31521069,54,1996,Trading,NULL,stephane.orain@metro.fr,0,NULL,stephane.orain@metro.fr,"On Completion of both Help Desk and Planned Maintenance Work",,ACTIF,October,0,0,0,,NULL,NULL,"Jerome PALMENTIER","Philippe LELONGT","Daniel FIGUEIREDO","Stephane ORAIN",,0,0,,,,,,"METRO 069",069-0395,"Entrepot Metro Vannes",NULL,NULL,NULL,3513,2154,2712,193,15,250,120,0,82,1618,,
143,1042,73,"Entrepot Metro Mulhouse",8,METRO,"Rue des Griottes Zone Industrielle 68260 KINGERSHEIM",68260,"METRO France Z.A. du Petit Nanterre 5 rue des Grands Pres 92000 NANTERRE",92000,3.99E+13,33389570500,,"NORD EST",NULL,31521073,120,1993,Trading,NULL,cedric.seiller@metro.fr,0,NULL,cedric.seiller@metro.fr,"On Completion of both Help Desk and Planned Maintenance Work",,ACTIF,October,0,0,0,,NULL,NULL,"Aymeric LEPREUX","Mickael POULET","Daniel FIGUEIREDO","Cedric SEILLER",,0,0,,,,,,"METRO 073",073-0395,"Entrepot Metro Mulhouse",NULL,NULL,NULL,5864,10730,4574,433,40,674,130,,100,4512,,
144,1122,273,"Entrepot Metro Mulhouse Bureaux",8,METRO,"Rue des Griottes Zone Industrielle 68260 KINGERSHEIM",68260,"METRO France Z.A. du Petit Nanterre 5 rue des Grands Pres 92000 NANTERRE",92000,3.99E+13,33389570500,,"NORD EST",NULL,31521273,0,1993,Trading,NULL,cedric.seiller@metro.fr,0,NULL,cedric.seiller@metro.fr,"On Completion of both Help Desk and Planned Maintenance Work",,ACTIF,October,0,0,0,,NULL,NULL,"Aymeric LEPREUX","Mickael POULET","Daniel FIGUEIREDO","Cedric SEILLER",,0,0,,,,,,"METRO 273",273-0395,"Entrepot Metro Mulhouse Bureaux",NULL,NULL,NULL,,,0,0,0,0,0,,,0,,
145,1044,45,"Entrepot Metro Colmar",8,METRO,"Z.I. Nord 45, rue Denis Papin 68000 COLMAR",68000,"METRO France Z.A. du Petit Nanterre 5 rue des Grands Pres 92000 NANTERRE",92000,3.99E+13,33389218200,,"NORD EST",NULL,31521045,110,2000,Trading,NULL,cedric.seiller@metro.fr,0,NULL,cedric.seiller@metro.fr,"On Completion of both Help Desk and Planned Maintenance Work",,ACTIF,October,0,0,0,,NULL,NULL,"Bertrand JACQUIER","Mickael POULET","Daniel FIGUEIREDO","Cedric SEILLER",,0,0,,,,,,"METRO 045",045-0395,"Entrepot Metro Colmar",NULL,NULL,NULL,3550,5649,2744,214,22,58971,0,0,"116,4",2987,,
146,1030,135,"Entrepot Metro Paris 18 La Chapelle",8,METRO,"55 ter Rue de la Chapelle 75018 PARIS",75018,"METRO France Z.A. du Petit Nanterre 5 rue des Grands Pres 92000 NANTERRE",92000,3.99E+13,33153091500,,"PARIS ILE DE FRANCE",NULL,31521135,250,2018,Trading,NULL,j.guzmanfernandez@metro.fr,0,NULL,j.guzmanfernandez@metro.fr,"On Completion of both Help Desk and Planned Maintenance Work",,ACTIF,October,0,0,0,,NULL,NULL,"Michael HERPIN","Francoise CARLA","Daniel FIGUEIREDO","Julio GUZMAN FERNANDEZ",,0,0,,,,,,"METRO 135",135-0395,"Entrepot Metro Paris 18 La Chapelle",NULL,NULL,NULL,14215,3061,5046,192,0,1636,0,0,186,3061,,
